STARLINK-1098_new
1 14917C 20001D   21326.11909804  .00008553  00000-0  57331-3 0  3261
2 14917  53.0506 188.2168 0001797  81.7563 131.8511 15.06372588    10
STARLINK-1098_old
1 24917C 20001D   21325.12397395 -.00084002  00000-0 -56324-2 0  3251
2 24917  53.0515 192.6807 0001877  82.3322 131.6686 15.06454459    17
